NORAD_CAT_ID,OBJECT_NAME,OBJECT_TYPE,EPOCH,MEAN_MOTION,ECCENTRICITY,INCLINATION,RA_OF_ASC_NODE,ARG_OF_PERICENTER,MEAN_ANOMALY,BSTAR,MEAN_MOTION_DOT,MEAN_MOTION_DDOT,TLE_LINE0,TLE_LINE1,TLE_LINE2,SEMIMAJOR_AXIS,PERIOD,APOGEE,PERIGEE,DECAYED
55766.0,STARLINK-5599,PAYLOAD,2023-06-18 22:00:00,15.43859073,0.0003547,69.9985,214.7693,269.1658,33.5514,-0.020338,-0.00844795,0.0,0 STARLINK-5599,1 55766U 23028AB  23169.91667824 -.00844795  00000-0 -20338-1 0  9994,2 55766  69.9985 214.7693 0003547 269.1658  33.5514 15.43859073 17469,6812.87,93.273,437.151,432.318,0.0
55766.0,STARLINK-5599,PAYLOAD,2023-06-19 12:00:00,15.42728836,0.0003567,69.9987,213.1932,273.3116,29.4138,-0.021586,-0.00872823,0.0,0 STARLINK-5599,1 55766U 23028AB  23170.50001157 -.00872823  00000-0 -21586-1 0  9991,2 55766  69.9987 213.1932 0003567 273.3116  29.4138 15.42728836 17555,6816.197,93.341,440.493,435.63,0.0
55766.0,STARLINK-5599,PAYLOAD,2023-06-19 12:15:42,15.4450656,0.0004249,69.9964,213.167,272.3355,87.7341,-0.0061152,-0.00274891,0.0,0 STARLINK-5599,1 55766U 23028AB  23170.51090801 -.00274891  00000-0 -61152-2 0  9991,2 55766  69.9964 213.1670 0004249 272.3355  87.7341 15.44506560 17565,6810.965,93.234,435.724,429.936,0.0
55766.0,STARLINK-5599,PAYLOAD,2023-06-19 22:00:00,15.41898452,0.0003455,69.9983,212.0692,270.2944,185.2625,-0.021529,-0.00848469,0.0,0 STARLINK-5599,1 55766U 23028AB  23170.91667824 -.00848469  00000-0 -21529-1 0  9991,2 55766  69.9983 212.0692 0003455 270.2944 185.2625 15.41898452 17613,6818.644,93.391,442.864,438.153,0.0
55766.0,STARLINK-5599,PAYLOAD,2023-06-20 04:00:00,15.41481858,0.0003547,69.9985,211.3955,269.1097,133.5327,-0.025131,-0.00966034,0.0,0 STARLINK-5599,1 55766U 23028AB  23171.16667824 -.00966034  00000-0 -25131-1 0  9991,2 55766  69.9985 211.3955 0003547 269.1097 133.5327 15.41481858 17654,6819.872,93.417,444.156,439.318,0.0
55766.0,STARLINK-5599,PAYLOAD,2023-06-20 14:00:01,15.40632315,0.0003372,69.9982,210.2735,274.5342,278.9891,-0.024091,-0.00905319,0.0,0 STARLINK-5599,1 55766U 23028AB  23171.58334491 -.00905319  00000-0 -24091-1 0  9991,2 55766  69.9982 210.2735 0003372 274.5342 278.9891 15.40632315  1304,6822.379,93.468,446.544,441.943,0.0
55766.0,STARLINK-5599,PAYLOAD,2023-06-20 22:00:00,15.39941009,0.000336,69.9983,209.3771,267.9756,333.3788,-0.022886,-0.00845307,0.0,0 STARLINK-5599,1 55766U 23028AB  23171.91667824 -.00845307  00000-0 -22886-1 0  9997,2 55766  69.9983 209.3771 0003360 267.9756 333.3788 15.39941009 17776,6824.421,93.51,448.579,443.993,0.0
55766.0,STARLINK-5599,PAYLOAD,2023-06-21 06:00:00,15.39343972,0.0003463,69.9983,208.4817,269.1878,19.1884,-0.026505,-0.00950443,0.0,0 STARLINK-5599,1 55766U 23028AB  23172.25001157 -.00950443  00000-0 -26505-1 0  9996,2 55766  69.9983 208.4817 0003463 269.1878  19.1884 15.39343972 17827,6826.185,93.546,450.414,445.686,0.0
55766.0,STARLINK-5599,PAYLOAD,2023-06-21 14:00:01,15.38687881,0.0003524,69.998,207.587,274.9329,59.6894,-0.026232,-0.00922996,0.0,0 STARLINK-5599,1 55766U 23028AB  23172.58334491 -.00922996  00000-0 -26232-1 0  9991,2 55766  69.9980 207.5870 0003524 274.9329  59.6894 15.38687881  1301,6828.125,93.586,452.397,447.584,0.0
55766.0,STARLINK-5599,PAYLOAD,2023-06-21 22:00:01,15.37978765,0.0003432,69.9982,206.6932,269.7982,110.3796,-0.024101,-0.00835429,0.0,0 STARLINK-5599,1 55766U 23028AB  23172.91668981 -.00835429  00000-0 -24101-1 0  9999,2 55766  69.9982 206.6932 0003432 269.7982 110.3796 15.37978765 17921,6830.224,93.629,454.433,449.745,0.0
55766.0,STARLINK-5599,PAYLOAD,2023-06-22 06:00:00,15.37385193,0.0003387,69.9985,205.8004,271.8737,152.915,-0.028238,-0.00949739,0.0,0 STARLINK-5599,1 55766U 23028AB  23173.25001157 -.00949739  00000-0 -28238-1 0  9998,2 55766  69.9985 205.8004 0003387 271.8737 152.9150 15.37385193 17974,6831.982,93.666,456.161,451.533,0.0
55766.0,STARLINK-5599,PAYLOAD,2023-06-22 20:00:01,15.36196397,0.0003318,69.9984,204.2397,271.6986,139.4239,-0.02651,-0.00864876,0.0,0 STARLINK-5599,1 55766U 23028AB  23173.83334491 -.00864876  00000-0 -26510-1 0  9991,2 55766  69.9984 204.2397 0003318 271.6986 139.4239 15.36196397 18063,6835.506,93.738,459.639,455.103,0.0
55766.0,STARLINK-5599,PAYLOAD,2023-06-23 06:00:00,15.35419265,0.0003195,69.9988,203.1267,270.5265,283.6347,-0.029521,-0.00933199,0.0,0 STARLINK-5599,1 55766U 23028AB  23174.25001157 -.00933199  00000-0 -29521-1 0  9998,2 55766  69.9988 203.1267 0003195 270.5265 283.6347 15.35419265 18122,6837.812,93.785,461.862,457.493,0.0
55766.0,STARLINK-5599,PAYLOAD,2023-06-24 14:00:01,15.32824517,0.0003305,69.9986,199.5741,274.1575,81.5343,-0.032389,-0.00941911,0.0,0 STARLINK-5599,1 55766U 23028AB  23175.58334491 -.00941911  00000-0 -32389-1 0  9992,2 55766  69.9986 199.5741 0003305 274.1575  81.5343 15.32824517 18333,6845.527,93.944,469.654,465.129,0.0
55766.0,STARLINK-5599,PAYLOAD,2023-06-25 14:00:01,15.30869288,0.0003103,69.9987,196.9191,275.9389,192.6942,-0.034541,-0.00944422,0.0,0 STARLINK-5599,1 55766U 23028AB  23176.58334491 -.00944422  00000-0 -34541-1 0  9995,2 55766  69.9987 196.9191 0003103 275.9389 192.6942 15.30869288 18489,6851.354,94.064,475.345,471.093,0.0
55766.0,STARLINK-5599,PAYLOAD,2023-06-26 14:00:01,15.28914106,0.0003019,69.9986,194.2724,273.4351,301.0996,-0.036912,-0.00961623,0.0,0 STARLINK-5599,1 55766U 23028AB  23177.58334491 -.00961623  00000-0 -36912-1 0  9992,2 55766  69.9986 194.2724 0003019 273.4351 301.0996 15.28914106 18649,6857.194,94.184,481.129,476.989,0.0
55766.0,STARLINK-5599,PAYLOAD,2023-06-27 02:00:01,15.27947762,0.0003186,69.999,192.952,269.8252,175.0161,-0.038703,-0.00977566,0.0,0 STARLINK-5599,1 55766U 23028AB  23178.08334491 -.00977566  00000-0 -38703-1 0  9991,2 55766  69.9990 192.9520 0003186 269.8252 175.0161 15.27947762 18711,6860.085,94.244,484.136,479.764,0.0
55766.0,STARLINK-5599,PAYLOAD,2023-06-27 14:00:01,15.26957068,0.000316,69.9985,191.6334,273.3732,40.0229,-0.039257,-0.00963163,0.0,0 STARLINK-5599,1 55766U 23028AB  23178.58334491 -.00963163  00000-0 -39257-1 0  9999,2 55766  69.9985 191.6334 0003160 273.3732  40.0229 15.26957068 18792,6863.052,94.305,487.086,482.748,0.0
55766.0,STARLINK-5599,PAYLOAD,2023-06-28 06:00:00,15.25613534,0.0003226,69.9988,189.8785,272.1441,103.2662,-0.038377,-0.00897137,0.0,0 STARLINK-5599,1 55766U 23028AB  23179.25001157 -.00897137  00000-0 -38377-1 0  9993,2 55766  69.9988 189.8785 0003226 272.1441 103.2662 15.25613534 18891,6867.081,94.388,491.161,486.73,0.0
55766.0,STARLINK-5599,PAYLOAD,2023-06-28 14:00:01,15.24999736,0.0003178,69.9984,189.0022,275.6633,129.5533,-0.041619,-0.00962472,0.0,0 STARLINK-5599,1 55766U 23028AB  23179.58334491 -.00962472  00000-0 -41619-1 0  9997,2 55766  69.9984 189.0022 0003178 275.6633 129.5533 15.24999736 18944,6868.923,94.426,492.971,488.605,0.0
55766.0,STARLINK-5599,PAYLOAD,2023-06-29 22:00:00,15.22363933,0.0003032,69.9983,185.5061,268.5264,248.1702,-0.042096,-0.00904211,0.0,0 STARLINK-5599,1 55766U 23028AB  23180.91667824 -.00904211  00000-0 -42096-1 0  9992,2 55766  69.9983 185.5061 0003032 268.5264 248.1702 15.22363933 19148,6876.849,94.59,500.8,496.629,0.0
55766.0,STARLINK-5599,PAYLOAD,2023-07-01 06:00:00,15.19735967,0.0003093,69.9982,182.0237,270.6164,345.0542,-0.044976,-0.00895005,0.0,0 STARLINK-5599,1 55766U 23028AB  23182.25001157 -.00895005  00000-0 -44976-1 0  9991,2 55766  69.9982 182.0237 0003093 270.6164 345.0542 15.19735967 19352,6884.775,94.753,508.769,504.51,0.0
55766.0,STARLINK-5599,PAYLOAD,2023-07-01 22:00:00,15.1845602,0.0003193,69.9979,180.2878,264.8778,35.5621,-0.047754,-0.00914159,0.0,0 STARLINK-5599,1 55766U 23028AB  23182.91667824 -.00914159  00000-0 -47754-1 0  9992,2 55766  69.9979 180.2878 0003193 264.8778  35.5621 15.18456020 19455,6888.643,94.833,512.708,508.309,0.0
55766.0,STARLINK-5599,PAYLOAD,2023-07-02 04:00:00,15.179643,0.0003078,69.9982,179.6376,268.4175,318.0207,-0.049552,-0.00933642,0.0,0 STARLINK-5599,1 55766U 23028AB  23183.16667824 -.00933642  00000-0 -49552-1 0  9996,2 55766  69.9982 179.6376 0003078 268.4175 318.0207 15.17964300 19494,6890.131,94.864,514.117,509.875,0.0
55766.0,STARLINK-5599,PAYLOAD,2023-07-04 06:00:02,15.13866237,0.0003092,69.9986,174.2395,271.6041,161.0212,-0.053045,-0.00892268,0.0,0 STARLINK-5599,1 55766U 23028AB  23185.25002315 -.00892268  00000-0 -53045-1 0  9996,2 55766  69.9986 174.2395 0003092 271.6041 161.0212 15.13866237 19807,6902.56,95.121,526.559,522.29,0.0
55766.0,STARLINK-5599,PAYLOAD,2023-07-04 22:00:01,15.1259368,0.000307,69.9988,172.5192,265.5698,197.7432,-0.057384,-0.00928472,0.0,0 STARLINK-5599,1 55766U 23028AB  23185.91668981 -.00928472  00000-0 -57384-1 0  9993,2 55766  69.9988 172.5192 0003070 265.5698 197.7432 15.12593680 19900,6906.431,95.201,530.416,526.175,0.0
55766.0,STARLINK-5599,PAYLOAD,2023-07-05 22:00:01,15.10643004,0.0003001,69.9993,169.9455,264.2545,239.2457,-0.061267,-0.00938059,0.0,0 STARLINK-5599,1 55766U 23028AB  23186.91668981 -.00938059  00000-0 -61267-1 0  9991,2 55766  69.9993 169.9455 0003001 264.2545 239.2457 15.10643004 20050,6912.375,95.324,536.314,532.165,0.0
55766.0,STARLINK-5599,PAYLOAD,2023-07-07 06:00:00,15.07989812,0.0002905,69.9997,166.526,269.1143,276.9771,-0.061452,-0.0087903,0.0,0 STARLINK-5599,1 55766U 23028AB  23188.25001157 -.00879030  00000-0 -61452-1 0  9995,2 55766  69.9997 166.5260 0002905 269.1143 276.9771 15.07989812 20267,6920.48,95.491,544.356,540.335,0.0
55766.0,STARLINK-5599,PAYLOAD,2023-07-07 22:00:00,15.06736211,0.0003006,69.9999,164.8214,262.0603,300.6333,-0.069148,-0.00950098,0.0,0 STARLINK-5599,1 55766U 23028AB  23188.91667824 -.00950098  00000-0 -69148-1 0  9991,2 55766  69.9999 164.8214 0003006 262.0603 300.6333 15.06736211 20367,6924.318,95.571,548.265,544.102,0.0
55766.0,STARLINK-5599,PAYLOAD,2023-07-08 22:00:00,15.04782332,0.0003029,69.9999,162.2709,261.9163,319.8449,-0.073361,-0.00966785,0.0,0 STARLINK-5599,1 55766U 23028AB  23189.91667824 -.00966785  00000-0 -73361-1 0  9994,2 55766  69.9999 162.2709 0003029 261.9163 319.8449 15.04782332 20512,6930.311,95.695,554.275,550.077,0.0
